NORAD_CAT_ID,OBJECT_NAME,OBJECT_TYPE,EPOCH,MEAN_MOTION,ECCENTRICITY,INCLINATION,RA_OF_ASC_NODE,ARG_OF_PERICENTER,MEAN_ANOMALY,BSTAR,MEAN_MOTION_DOT,MEAN_MOTION_DDOT,TLE_LINE0,TLE_LINE1,TLE_LINE2,SEMIMAJOR_AXIS,PERIOD,APOGEE,PERIGEE,DECAYED
51981.0,STARLINK-3635,PAYLOAD,2023-08-31 00:24:46,15.08832309,0.0001198,53.2162,216.6654,88.3069,271.806,6.1512e-05,6.91e-06,0.0,0 STARLINK-3635,1 51981U 22025AB  23243.01720983  .00000691  00000-0  61512-4 0  9994,2 51981  53.2162 216.6654 0001198  88.3069 271.8060 15.08832309 83013,6917.904,95.438,540.598,538.94,0.0
51981.0,STARLINK-3635,PAYLOAD,2023-08-31 21:04:47,15.08833785,0.0001241,53.2169,212.8013,97.1929,262.9205,7.2205e-05,8.61e-06,0.0,0 STARLINK-3635,1 51981U 22025AB  23243.87833234  .00000861  00000-0  72205-4 0  9992,2 51981  53.2169 212.8013 0001241  97.1929 262.9205 15.08833785 82042,6917.899,95.438,540.623,538.906,0.0
51981.0,STARLINK-3635,PAYLOAD,2023-09-01 05:01:43,15.08839424,0.0001254,53.2172,211.3154,99.4047,260.7087,9.6319e-05,1.245e-05,0.0,0 STARLINK-3635,1 51981U 22025AB  23244.20952946  .00001245  00000-0  96319-4 0  9991,2 51981  53.2172 211.3154 0001254  99.4047 260.7087 15.08839424 83193,6917.882,95.438,540.615,538.88,0.0
51981.0,STARLINK-3635,PAYLOAD,2023-09-01 14:34:02,15.08839601,0.0001257,53.2173,209.5314,97.1656,262.9479,8.7571e-05,1.106e-05,0.0,0 STARLINK-3635,1 51981U 22025AB  23244.60697036  .00001106  00000-0  87571-4 0  9997,2 51981  53.2173 209.5314 0001257  97.1656 262.9479 15.08839601 82156,6917.882,95.438,540.616,538.877,0.0
51981.0,STARLINK-3635,PAYLOAD,2023-09-02 06:27:53,15.08838949,0.0001282,53.2168,206.5571,92.6844,267.4295,8.1776e-05,1.014e-05,0.0,0 STARLINK-3635,1 51981U 22025AB  23245.26937229  .00001014  00000-0  81776-4 0  9990,2 51981  53.2168 206.5571 0001282  92.6844 267.4295 15.08838949 83352,6917.884,95.438,540.635,538.862,0.0
51981.0,STARLINK-3635,PAYLOAD,2023-09-02 20:46:22,15.08839859,0.0001302,53.2152,203.8799,90.3408,269.7734,3.3399e-05,2.44e-06,0.0,0 STARLINK-3635,1 51981U 22025AB  23245.86553413  .00000244  00000-0  33399-4 0  9997,2 51981  53.2152 203.8799 0001302  90.3408 269.7734 15.08839859 82343,6917.881,95.438,540.647,538.845,0.0
51981.0,STARLINK-3635,PAYLOAD,2023-09-03 04:43:17,15.08845188,0.0001369,53.2157,202.3936,88.9572,271.1577,7.9475e-05,9.77e-06,0.0,0 STARLINK-3635,1 51981U 22025AB  23246.19672966  .00000977  00000-0  79475-4 0  9997,2 51981  53.2157 202.3936 0001369  88.9572 271.1577 15.08845188 82392,6917.865,95.437,540.677,538.782,0.0
51981.0,STARLINK-3635,PAYLOAD,2023-09-03 14:15:36,15.08836667,0.0001511,53.217,200.6098,81.948,278.1684,1.3372e-05,-7.5e-07,0.0,0 STARLINK-3635,1 51981U 22025AB  23246.59417780 -.00000075  00000-0  13372-4 0  9996,2 51981  53.2170 200.6098 0001511  81.9480 278.1684 15.08836667 83554,6917.891,95.438,540.801,538.71,0.0
51981.0,STARLINK-3635,PAYLOAD,2023-09-04 04:34:05,15.08830559,0.0001501,53.2166,197.9341,80.6705,279.4457,2.1016e-05,4.6e-07,0.0,0 STARLINK-3635,1 51981U 22025AB  23247.19034421  .00000046  00000-0  21016-4 0  9991,2 51981  53.2166 197.9341 0001501  80.6705 279.4457 15.08830559 83649,6917.909,95.438,540.813,538.736,0.0
51981.0,STARLINK-3635,PAYLOAD,2023-09-04 14:06:24,15.08838509,0.0001527,53.217,196.1502,81.7954,278.3212,8.5899e-05,1.079e-05,0.0,0 STARLINK-3635,1 51981U 22025AB  23247.58777886  .00001079  00000-0  85899-4 0  9999,2 51981  53.2170 196.1502 0001527  81.7954 278.3212 15.08838509 83707,6917.885,95.438,540.806,538.694,0.0
51981.0,STARLINK-3635,PAYLOAD,2023-09-05 02:49:28,15.08850938,0.0001451,53.2169,193.7703,85.29,274.8258,0.00012648,1.726e-05,0.0,0 STARLINK-3635,1 51981U 22025AB  23248.11768973  .00001726  00000-0  12648-3 0  9996,2 51981  53.2169 193.7703 0001451  85.2900 274.8258 15.08850938 83786,6917.847,95.437,540.716,538.708,0.0
51981.0,STARLINK-3635,PAYLOAD,2023-09-05 06:00:14,15.0885354,0.0001516,53.2172,193.1742,95.563,264.5535,0.00014479,2.018e-05,0.0,0 STARLINK-3635,1 51981U 22025AB  23248.25016721  .00002018  00000-0  14479-3 0  9997,2 51981  53.2172 193.1742 0001516  95.5630 264.5535 15.08853540 82700,6917.839,95.437,540.753,538.655,0.0
51981.0,STARLINK-3635,PAYLOAD,2023-09-06 02:40:16,15.08837198,0.0001406,53.2168,189.3076,88.5945,271.5208,0.00016234,2.296e-05,0.0,0 STARLINK-3635,1 51981U 22025AB  23249.11129635  .00002296  00000-0  16234-3 0  9991,2 51981  53.2168 189.3076 0001406  88.5945 271.5208 15.08837198 83933,6917.889,95.438,540.727,538.781,0.0
51981.0,STARLINK-3635,PAYLOAD,2023-09-06 20:09:30,15.08843288,0.0001607,53.217,186.0355,95.2926,264.825,-3.5818e-05,-8.58e-06,0.0,0 STARLINK-3635,1 51981U 22025AB  23249.83993812 -.00000858  00000-0 -35818-4 0  9990,2 51981  53.2170 186.0355 0001607  95.2926 264.8250 15.08843288 82946,6917.87,95.437,540.847,538.624,0.0
51981.0,STARLINK-3635,PAYLOAD,2023-09-06 23:20:16,15.08844218,0.0001583,53.2167,185.4409,94.6594,265.4579,-2.6566e-05,-7.11e-06,0.0,0 STARLINK-3635,1 51981U 22025AB  23249.97241661 -.00000711  00000-0 -26566-4 0  9991,2 51981  53.2167 185.4409 0001583  94.6594 265.4579 15.08844218 82969,6917.867,95.437,540.828,538.637,0.0
51981.0,STARLINK-3635,PAYLOAD,2023-09-08 02:21:50,15.08839541,0.0001154,53.2169,180.3888,84.8716,275.2408,9.5153e-05,1.227e-05,0.0,0 STARLINK-3635,1 51981U 22025AB  23251.09849613  .00001227  00000-0  95153-4 0  9997,2 51981  53.2169 180.3888 0001154  84.8716 275.2408 15.08839541 84232,6917.882,95.438,540.545,538.948,0.0
51981.0,STARLINK-3635,PAYLOAD,2023-09-08 19:51:05,15.08833706,0.000145,53.2178,177.1217,96.0307,264.085,6.0293e-05,6.72e-06,0.0,0 STARLINK-3635,1 51981U 22025AB  23251.82714305  .00000672  00000-0  60293-4 0  9997,2 51981  53.2178 177.1217 0001450  96.0307 264.0850 15.08833706 83246,6917.9,95.438,540.768,538.762,0.0
51981.0,STARLINK-3635,PAYLOAD,2023-09-09 00:37:14,15.08837168,0.0001457,53.2177,176.2261,91.8546,268.2613,7.0139e-05,8.28e-06,0.0,0 STARLINK-3635,1 51981U 22025AB  23252.02586102  .00000828  00000-0  70139-4 0  9995,2 51981  53.2177 176.2261 0001457  91.8546 268.2613 15.08837168 84373,6917.889,95.438,540.762,538.746,0.0
51981.0,STARLINK-3635,PAYLOAD,2023-09-09 11:44:56,15.08840915,0.0001479,53.2179,174.1448,85.8957,274.2204,1.6276e-05,-2.9e-07,0.0,0 STARLINK-3635,1 51981U 22025AB  23252.48954315 -.00000029  00000-0  16276-4 0  9996,2 51981  53.2179 174.1448 0001479  85.8957 274.2204 15.08840915 83345,6917.878,95.437,540.766,538.719,0.0
51981.0,STARLINK-3635,PAYLOAD,2023-09-10 02:03:24,15.08849354,0.0001559,53.2183,171.4698,90.8629,269.2541,6.9627e-05,8.21e-06,0.0,0 STARLINK-3635,1 51981U 22025AB  23253.08569634  .00000821  00000-0  69627-4 0  9996,2 51981  53.2183 171.4698 0001559  90.8629 269.2541 15.08849354 84534,6917.852,95.437,540.795,538.638,0.0
51981.0,STARLINK-3635,PAYLOAD,2023-09-10 03:38:47,15.08849019,0.0001539,53.2183,171.1724,97.4376,262.6791,8.2789e-05,1.03e-05,0.0,0 STARLINK-3635,1 51981U 22025AB  23253.15193569  .00001030  00000-0  82789-4 0  9991,2 51981  53.2183 171.1724 0001539  97.4376 262.6791 15.08849019 83442,6917.853,95.437,540.782,538.653,0.0
51981.0,STARLINK-3635,PAYLOAD,2023-09-11 01:54:12,15.08835434,0.0001487,53.2179,167.0098,98.2059,261.9102,4.6601e-05,4.54e-06,0.0,0 STARLINK-3635,1 51981U 22025AB  23254.07930899  .00000454  00000-0  46601-4 0  9990,2 51981  53.2179 167.0098 0001487  98.2059 261.9102 15.08835434 84685,6917.894,95.438,540.788,538.731,0.0
51981.0,STARLINK-3635,PAYLOAD,2023-09-11 11:26:30,15.08839731,0.0001483,53.2179,165.2255,91.838,268.2782,9.7815e-05,1.269e-05,0.0,0 STARLINK-3635,1 51981U 22025AB  23254.47674711  .00001269  00000-0  97815-4 0  9990,2 51981  53.2179 165.2255 0001483  91.8380 268.2782 15.08839731 83645,6917.881,95.438,540.772,538.72,0.0
51981.0,STARLINK-3635,PAYLOAD,2023-09-12 01:44:58,15.08853326,0.0001392,53.2164,162.5463,91.0762,269.039,0.00023709,3.489e-05,0.0,0 STARLINK-3635,1 51981U 22025AB  23255.07289899  .00003489  00000-0  23709-3 0  9992,2 51981  53.2164 162.5463 0001392  91.0762 269.0390 15.08853326 84837,6917.84,95.437,540.668,538.742,0.0
51981.0,STARLINK-3635,PAYLOAD,2023-09-12 03:20:21,15.08854754,0.0001377,53.2165,162.25,90.6231,269.4919,0.00027761,4.135e-05,0.0,0 STARLINK-3635,1 51981U 22025AB  23255.13913857  .00004135  00000-0  27761-3 0  9998,2 51981  53.2165 162.2500 0001377  90.6231 269.4919 15.08854754 83742,6917.835,95.437,540.653,538.748,0.0
51981.0,STARLINK-3635,PAYLOAD,2023-09-12 17:38:50,15.08841406,0.0001525,53.217,159.5732,81.4835,278.633,0.00018114,2.596e-05,0.0,0 STARLINK-3635,1 51981U 22025AB  23255.73530779  .00002596  00000-0  18114-3 0  9993,2 51981  53.2170 159.5732 0001525  81.4835 278.6330 15.08841406 84938,6917.876,95.437,540.796,538.686,0.0
51981.0,STARLINK-3635,PAYLOAD,2023-09-13 00:00:22,15.08848731,0.0001592,53.2168,158.3852,77.4812,282.6358,0.00030526,4.575e-05,0.0,0 STARLINK-3635,1 51981U 22025AB  23256.00026507  .00004575  00000-0  30526-3 0  9993,2 51981  53.2168 158.3852 0001592  77.4812 282.6358 15.08848731 83874,6917.854,95.437,540.82,538.617,0.0
51981.0,STARLINK-3635,PAYLOAD,2023-09-13 20:40:23,15.08852578,0.0001372,53.2157,154.5198,80.4256,279.6892,0.00028687,4.282e-05,0.0,0 STARLINK-3635,1 51981U 22025AB  23256.86137915  .00004282  00000-0  28687-3 0  9993,2 51981  53.2157 154.5198 0001372  80.4256 279.6892 15.08852578 84004,6917.842,95.437,540.656,538.758,0.0
51981.0,STARLINK-3635,PAYLOAD,2023-09-13 23:51:09,15.08856141,0.000143,53.2163,153.9244,87.925,272.1906,0.00031963,4.805e-05,0.0,0 STARLINK-3635,1 51981U 22025AB  23256.99385677  .00004805  00000-0  31963-3 0  9999,2 51981  53.2163 153.9244 0001430  87.9250 272.1906 15.08856141 85125,6917.831,95.437,540.685,538.707,0.0
51981.0,STARLINK-3635,PAYLOAD,2023-09-14 03:01:55,15.08857219,0.0001488,53.2159,153.3292,87.0538,273.0625,0.00037125,5.628e-05,0.0,0 STARLINK-3635,1 51981U 22025AB  23257.12633583  .00005628  00000-0  37125-3 0  9997,2 51981  53.2159 153.3292 0001488  87.0538 273.0625 15.08857219 84045,6917.828,95.436,540.722,538.663,0.0
